[{"OBJECT_NAME":"ONEWEB-0665","OBJECT_ID":"2023-029AF","EPOCH":"2025-08-07T15:06:03.986784","MEAN_MOTION":13.14504023,"ECCENTRICITY":0.00019943,"INCLINATION":87.9079,"RA_OF_ASC_NODE":352.1271,"ARG_OF_PERICENTER":91.1337,"MEAN_ANOMALY":269.0022,"EPHEMERIS_TYPE":0,"CLASSIFICATION_TYPE":"U","NORAD_CAT_ID":55825,"ELEMENT_SET_NO":999,"REV_AT_EPOCH":11821,"BSTAR":-0.00040729929,"MEAN_MOTION_DOT":-1.38e-6,"MEAN_MOTION_DDOT":0},{"OBJECT_NAME":"ONEWEB-0666","OBJECT_ID":"2023-029AG","EPOCH":"2025-08-07T15:04:00.739776","MEAN_MOTION":13.20773594,"ECCENTRICITY":0.00013921,"INCLINATION":87.9301,"RA_OF_ASC_NODE":336.9646,"ARG_OF_PERICENTER":119.3374,"MEAN_ANOMALY":240.7899,"EPHEMERIS_TYPE":0,"CLASSIFICATION_TYPE":"U","NORAD_CAT_ID":55826,"ELEMENT_SET_NO":999,"REV_AT_EPOCH":11976,"BSTAR":-7.562008e-6,"MEAN_MOTION_DOT":1.0e-7,"MEAN_MOTION_DDOT":0},{"OBJECT_NAME":"ONEWEB-0667","OBJECT_ID":"2023-029AH","EPOCH":"2025-08-07T09:27:40.722048","MEAN_MOTION":13.20772822,"ECCENTRICITY":0.00020582,"INCLINATION":87.9294,"RA_OF_ASC_NODE":336.94,"ARG_OF_PERICENTER":94.913,"MEAN_ANOMALY":265.2238,"EPHEMERIS_TYPE":0,"CLASSIFICATION_TYPE":"U","NORAD_CAT_ID":55827,"ELEMENT_SET_NO":999,"REV_AT_EPOCH":11972,"BSTAR":-8.59198e-7,"MEAN_MOTION_DOT":1.3e-7,"MEAN_MOTION_DDOT":0},{"OBJECT_NAME":"ONEWEB-0669","OBJECT_ID":"2023-029AJ","EPOCH":"2025-08-07T14:48:07.421184","MEAN_MOTION":13.20771454,"ECCENTRICITY":0.00022494,"INCLINATION":87.9301,"RA_OF_ASC_NODE":336.9337,"ARG_OF_PERICENTER":116.2609,"MEAN_ANOMALY":243.8756,"EPHEMERIS_TYPE":0,"CLASSIFICATION_TYPE":"U","NORAD_CAT_ID":55828,"ELEMENT_SET_NO":999,"REV_AT_EPOCH":11975,"BSTAR":-0.00010409859,"MEAN_MOTION_DOT":-2.9e-7,"MEAN_MOTION_DDOT":0},{"OBJECT_NAME":"ONEWEB-0670","OBJECT_ID":"2023-029AK","EPOCH":"2025-08-07T09:05:15.359136","MEAN_MOTION":13.145049,"ECCENTRICITY":0.00022626,"INCLINATION":87.9085,"RA_OF_ASC_NODE":352.1965,"ARG_OF_PERICENTER":96.9456,"MEAN_ANOMALY":263.1931,"EPHEMERIS_TYPE":0,"CLASSIFICATION_TYPE":"U","NORAD_CAT_ID":55829,"ELEMENT_SET_NO":999,"REV_AT_EPOCH":11820,"BSTAR":0.00029206991,"MEAN_MOTION_DOT":1.21e-6,"MEAN_MOTION_DDOT":0},{"OBJECT_NAME":"ONEWEB-0671","OBJECT_ID":"2023-029AL","EPOCH":"2025-08-07T09:49:34.430592","MEAN_MOTION":13.19727118,"ECCENTRICITY":0.00020674,"INCLINATION":87.9244,"RA_OF_ASC_NODE":7.3594,"ARG_OF_PERICENTER":93.3766,"MEAN_ANOMALY":266.7603,"EPHEMERIS_TYPE":0,"CLASSIFICATION_TYPE":"U","NORAD_CAT_ID":55830,"ELEMENT_SET_NO":999,"REV_AT_EPOCH":11751,"BSTAR":0.00018996498,"MEAN_MOTION_DOT":8.9e-7,"MEAN_MOTION_DDOT":0},{"OBJECT_NAME":"ONEWEB-0672","OBJECT_ID":"2023-029AM","EPOCH":"2025-08-07T09:14:01.101408","MEAN_MOTION":13.20769968,"ECCENTRICITY":0.00017641,"INCLINATION":87.9297,"RA_OF_ASC_NODE":336.9654,"ARG_OF_PERICENTER":107.2824,"MEAN_ANOMALY":252.8503,"EPHEMERIS_TYPE":0,"CLASSIFICATION_TYPE":"U","NORAD_CAT_ID":55831,"ELEMENT_SET_NO":999,"REV_AT_EPOCH":11972,"BSTAR":-0.0001576697,"MEAN_MOTION_DOT":-5.1e-7,"MEAN_MOTION_DDOT":0},{"OBJECT_NAME":"ONEWEB-0673","OBJECT_ID":"2023-029AN","EPOCH":"2025-08-07T11:04:38.345088","MEAN_MOTION":13.19725508,"ECCENTRICITY":0.00017965,"INCLINATION":87.9248,"RA_OF_ASC_NODE":7.3128,"ARG_OF_PERICENTER":88.2119,"MEAN_ANOMALY":271.922,"EPHEMERIS_TYPE":0,"CLASSIFICATION_TYPE":"U","NORAD_CAT_ID":55832,"ELEMENT_SET_NO":999,"REV_AT_EPOCH":11752,"BSTAR":8.2991185e-5,"MEAN_MOTION_DOT":4.6e-7,"MEAN_MOTION_DDOT":0},{"OBJECT_NAME":"ONEWEB-0674","OBJECT_ID":"2023-029AP","EPOCH":"2025-08-07T10:09:14.123232","MEAN_MOTION":13.14502435,"ECCENTRICITY":0.00023316,"INCLINATION":87.9078,"RA_OF_ASC_NODE":352.172,"ARG_OF_PERICENTER":99.2438,"MEAN_ANOMALY":260.8955,"EPHEMERIS_TYPE":0,"CLASSIFICATION_TYPE":"U","NORAD_CAT_ID":55833,"ELEMENT_SET_NO":999,"REV_AT_EPOCH":11819,"BSTAR":0.00022898434,"MEAN_MOTION_DOT":9.8e-7,"MEAN_MOTION_DDOT":0},{"OBJECT_NAME":"ONEWEB-0675","OBJECT_ID":"2023-029AQ","EPOCH":"2025-08-07T11:27:23.402880","MEAN_MOTION":13.19726546,"ECCENTRICITY":0.00014899,"INCLINATION":87.924,"RA_OF_ASC_NODE":7.3569,"ARG_OF_PERICENTER":94.8873,"MEAN_ANOMALY":265.243,"EPHEMERIS_TYPE":0,"CLASSIFICATION_TYPE":"U","NORAD_CAT_ID":55834,"ELEMENT_SET_NO":999,"REV_AT_EPOCH":11754,"BSTAR":0.00015705452,"MEAN_MOTION_DOT":7.6e-7,"MEAN_MOTION_DDOT":0},{"OBJECT_NAME":"ONEWEB-0720","OBJECT_ID":"2023-029AR","EPOCH":"2025-08-07T11:16:00.503328","MEAN_MOTION":13.19723908,"ECCENTRICITY":0.00020089,"INCLINATION":87.924,"RA_OF_ASC_NODE":7.3558,"ARG_OF_PERICENTER":83.1077,"MEAN_ANOMALY":277.0284,"EPHEMERIS_TYPE":0,"CLASSIFICATION_TYPE":"U","NORAD_CAT_ID":55835,"ELEMENT_SET_NO":999,"REV_AT_EPOCH":11746,"BSTAR":0.0001305085,"MEAN_MOTION_DOT":6.5e-7,"MEAN_MOTION_DDOT":0},{"OBJECT_NAME":"ONEWEB-0537","OBJECT_ID":"2023-043A","EPOCH":"2025-08-07T11:29:56.815584","MEAN_MOTION":13.16593199,"ECCENTRICITY":0.0001833,"INCLINATION":87.9046,"RA_OF_ASC_NODE":291.2931,"ARG_OF_PERICENTER":101.4804,"MEAN_ANOMALY":258.6533,"EPHEMERIS_TYPE":0,"CLASSIFICATION_TYPE":"U","NORAD_CAT_ID":56046,"ELEMENT_SET_NO":999,"REV_AT_EPOCH":11768,"BSTAR":-0.00059518862,"MEAN_MOTION_DOT":-2.15e-6,"MEAN_MOTION_DDOT":0},{"OBJECT_NAME":"ONEWEB-0538","OBJECT_ID":"2023-043B","EPOCH":"2025-08-07T05:52:32.712384","MEAN_MOTION":13.16594029,"ECCENTRICITY":0.00017939,"INCLINATION":87.9038,"RA_OF_ASC_NODE":291.3549,"ARG_OF_PERICENTER":93.3481,"MEAN_ANOMALY":266.7855,"EPHEMERIS_TYPE":0,"CLASSIFICATION_TYPE":"U","NORAD_CAT_ID":56047,"ELEMENT_SET_NO":999,"REV_AT_EPOCH":11766,"BSTAR":-3.8065264e-5,"MEAN_MOTION_DOT":-2.0e-8,"MEAN_MOTION_DDOT":0},{"OBJECT_NAME":"ONEWEB-0546","OBJECT_ID":"2023-043C","EPOCH":"2025-08-07T11:02:36.401856","MEAN_MOTION":13.16593981,"ECCENTRICITY":0.00016834,"INCLINATION":87.905,"RA_OF_ASC_NODE":291.2906,"ARG_OF_PERICENTER":117.6686,"MEAN_ANOMALY":242.4616,"EPHEMERIS_TYPE":0,"CLASSIFICATION_TYPE":"U","NORAD_CAT_ID":56048,"ELEMENT_SET_NO":999,"REV_AT_EPOCH":11768,"BSTAR":-0.0002185272,"MEAN_MOTION_DOT":-7.1e-7,"MEAN_MOTION_DDOT":0},{"OBJECT_NAME":"ONEWEB-0547","OBJECT_ID":"2023-043D","EPOCH":"2025-08-07T11:42:30.697920","MEAN_MOTION":13.21825194,"ECCENTRICITY":0.00019266,"INCLINATION":87.9264,"RA_OF_ASC_NODE":306.5635,"ARG_OF_PERICENTER":92.6386,"MEAN_ANOMALY":267.4969,"EPHEMERIS_TYPE":0,"CLASSIFICATION_TYPE":"U","NORAD_CAT_ID":56049,"ELEMENT_SET_NO":999,"REV_AT_EPOCH":11678,"BSTAR":0.00021975012,"MEAN_MOTION_DOT":1.04e-6,"MEAN_MOTION_DDOT":0},{"OBJECT_NAME":"ONEWEB-0548","OBJECT_ID":"2023-043E","EPOCH":"2025-08-07T13:28:30.495648","MEAN_MOTION":13.16592273,"ECCENTRICITY":0.00024878,"INCLINATION":87.9032,"RA_OF_ASC_NODE":291.2994,"ARG_OF_PERICENTER":101.3681,"MEAN_ANOMALY":258.773,"EPHEMERIS_TYPE":0,"CLASSIFICATION_TYPE":"U","NORAD_CAT_ID":56050,"ELEMENT_SET_NO":999,"REV_AT_EPOCH":11769,"BSTAR":0.0001617228,"MEAN_MOTION_DOT":7.5e-7,"MEAN_MOTION_DDOT":0},{"OBJECT_NAME":"ONEWEB-0549","OBJECT_ID":"2023-043F","EPOCH":"2025-08-07T11:30:00.846144","MEAN_MOTION":13.2182464,"ECCENTRICITY":0.00018875,"INCLINATION":87.9267,"RA_OF_ASC_NODE":306.5796,"ARG_OF_PERICENTER":90.7926,"MEAN_ANOMALY":269.3424,"EPHEMERIS_TYPE":0,"CLASSIFICATION_TYPE":"U","NORAD_CAT_ID":56051,"ELEMENT_SET_NO":999,"REV_AT_EPOCH":11678,"BSTAR":-1.67912e-6,"MEAN_MOTION_DOT":1.2e-7,"MEAN_MOTION_DDOT":0}]
