ONEWEB-0665             
1 55825U 23029AF  25219.62921281 -.00000138  00000+0 -40730-3 0  9991
2 55825  87.9079 352.1271 0001994  91.1337 269.0022 13.14504023118212
ONEWEB-0666             
1 55826U 23029AG  25219.62778634  .00000010  00000+0 -75620-5 0  9990
2 55826  87.9301 336.9646 0001392 119.3374 240.7899 13.20773594119760
ONEWEB-0667             
1 55827U 23029AH  25219.39422132  .00000013  00000+0 -85920-6 0  9992
2 55827  87.9294 336.9400 0002058  94.9130 265.2238 13.20772822119726
ONEWEB-0669             
1 55828U 23029AJ  25219.61675256 -.00000029  00000+0 -10410-3 0  9992
2 55828  87.9301 336.9337 0002249 116.2609 243.8756 13.20771454119756
ONEWEB-0670             
1 55829U 23029AK  25219.37864999  .00000121  00000+0  29207-3 0  9995
2 55829  87.9085 352.1965 0002262  96.9456 263.1931 13.14504900118204
ONEWEB-0671             
1 55830U 23029AL  25219.40942628  .00000089  00000+0  18996-3 0  9993
2 55830  87.9244   7.3594 0002067  93.3766 266.7603 13.19727118117519
ONEWEB-0672             
1 55831U 23029AM  25219.38473497 -.00000051  00000+0 -15767-3 0  9998
2 55831  87.9297 336.9654 0001764 107.2824 252.8503 13.20769968119720
ONEWEB-0673             
1 55832U 23029AN  25219.46155492  .00000046  00000+0  82991-4 0  9996
2 55832  87.9248   7.3128 0001796  88.2119 271.9220 13.19725508117526
ONEWEB-0674             
1 55833U 23029AP  25219.42308013  .00000098  00000+0  22898-3 0  9998
2 55833  87.9078 352.1720 0002331  99.2438 260.8955 13.14502435118192
ONEWEB-0675             
1 55834U 23029AQ  25219.47735420  .00000076  00000+0  15705-3 0  9995
2 55834  87.9240   7.3569 0001489  94.8873 265.2430 13.19726546117542
ONEWEB-0720             
1 55835U 23029AR  25219.46945027  .00000065  00000+0  13051-3 0  9991
2 55835  87.9240   7.3558 0002008  83.1077 277.0284 13.19723908117464
ONEWEB-0537             
1 56046U 23043A   25219.47912981 -.00000215  00000+0 -59519-3 0  9994
2 56046  87.9046 291.2931 0001833 101.4804 258.6533 13.16593199117689
ONEWEB-0538             
1 56047U 23043B   25219.24482306 -.00000002  00000+0 -38065-4 0  9991
2 56047  87.9038 291.3549 0001793  93.3481 266.7855 13.16594029117660
ONEWEB-0546             
1 56048U 23043C   25219.46014354 -.00000071  00000+0 -21853-3 0  9992
2 56048  87.9050 291.2906 0001683 117.6686 242.4616 13.16593981117680
ONEWEB-0547             
1 56049U 23043D   25219.48785530  .00000104  00000+0  21975-3 0  9996
2 56049  87.9264 306.5635 0001926  92.6386 267.4969 13.21825194116784
ONEWEB-0548             
1 56050U 23043E   25219.56146407  .00000075  00000+0  16172-3 0  9991
2 56050  87.9032 291.2994 0002487 101.3681 258.7730 13.16592273117699
ONEWEB-0549             
1 56051U 23043F   25219.47917646  .00000012  00000+0 -16791-5 0  9994
2 56051  87.9267 306.5796 0001887  90.7926 269.3424 13.21824640116785
